{
  "norad_id": 58967,
  "name": "STARLINK-31314",
  "history": [
    {
      "epoch": "2026-03-28T19:21:19.141920",
      "apogee_km": 476.13309305858456,
      "perigee_km": 474.2662441500561,
      "latitude_deg": -12.136078536762009,
      "longitude_deg": 154.12126879999414,
      "semi_major_axis_km": 6853.33666860432,
      "eccentricity": 0.0001362,
      "inclination_deg": 53.1615,
      "raan_deg": 207.6409,
      "arg_perigee_deg": 85.0979,
      "mean_anomaly_deg": 275.0177,
      "mean_motion_rev_day": 15.30205158
    }
  ]
}